GLOBALSTAR M001         
1 25162U 98008A   25177.82430692 -.00000116  00000+0 -14936-3 0  9992
2 25162  52.0051 305.1752 0000875 249.7205 276.8332 12.38213836244900
GLOBALSTAR M002         
1 25164U 98008C   25177.54555767 -.00000047  00000+0  57549-3 0  9993
2 25164  51.9984 216.7406 0001622 175.6880 184.3954 11.61510162185156
GLOBALSTAR M003         
1 25165U 98008D   25177.92674416 -.00000168  00000+0 -83378-3 0  9993
2 25165  51.9963 141.5497 0008211 315.1475  79.1623 12.12073417234402
GLOBALSTAR M014         
1 25306U 98023A   25177.32128006 -.00000094  00000+0 -31619-3 0  9999
2 25306  51.9813 140.3332 0001350   6.4871 142.2671 11.65481414192231
GLOBALSTAR M015         
1 25308U 98023C   25177.63048302 -.00000032  00000+0  95539-3 0  9997
2 25308  51.9832 291.2832 0012964  94.1263   9.2553 11.48860407195167
GLOBALSTAR M008         
1 25309U 98023D   25177.92731236 -.00000093  00000+0  20519-4 0  9999
2 25309  51.9941 169.8151 0002521 199.0286 176.8170 12.36070941239058
